IRIDIUM 7               
1 24793U 97020B   24150.89229300  .00000568  00000+0  19165-3 0  9991
2 24793  86.3952 337.4985 0001937  83.5301 276.6116 14.35232506416909
IRIDIUM 5               
1 24795U 97020D   24150.78740676  .00004932  00000+0  46568-3 0  9991
2 24795  86.3918 259.4386 0123765  68.3006 293.1343 14.87782975428331
IRIDIUM 4               
1 24796U 97020E   24150.91092656  .00000588  00000+0  19521-3 0  9997
2 24796  86.3945 334.6224 0002169  84.9215 275.2229 14.36157720417441
IRIDIUM 914             
1 24836U 97030A   24150.92103115  .00000648  00000+0  19969-3 0  9990
2 24836  86.3934 344.3486 0003671  68.7321 291.4270 14.40015938551959
IRIDIUM 16              
1 24841U 97030F   24150.66136288  .00000501  00000+0  15963-3 0  9992
2 24841  86.4050   6.3831 0000782 164.8875 195.2347 14.37908775411874
IRIDIUM 911             
1 24842U 97030G   24150.62973147  .00000638  00000+0  17154-3 0  9997
2 24842  86.4475   5.5388 0012433 301.4167  58.5819 14.46547796419610
IRIDIUM 17              
1 24870U 97034B   24150.75810062  .00000596  00000+0  19465-3 0  9992
2 24870  86.3983  35.9337 0002439 126.9322 233.2099 14.37004881408504
IRIDIUM 920             
1 24871U 97034C   24150.67532751  .00000545  00000+0  16455-3 0  9990
2 24871  86.3996  16.0960 0009400 267.2310  92.7813 14.40721425411344
